CYGFM08                 
1 41888U 16078E   24020.55865798  .00010454  00000+0  41950-3 0  9997
2 41888  34.9469 152.5114 0012157 298.0971  61.8514 15.24136526393473
CYGFM07                 
1 41890U 16078G   24020.70448046  .00011145  00000+0  44087-3 0  9992
2 41890  34.9477 143.5854 0011021 306.6118  53.3582 15.24616044393631
CYGFM03                 
1 41891U 16078H   24020.73254971  .00011177  00000+0  44294-3 0  9993
2 41891  34.9526 144.4573 0010145 301.3957  58.5765 15.24565340393625
FENGYUN 3D              
1 43010U 17072A   24020.84142708  .00000252  00000+0  14142-3 0  9990
2 43010  98.8917 334.7945 0002372  58.4509 301.6898 14.19270857320376
NOAA 20                 
1 43013U 17073A   24020.84885175  .00000202  00000+0  11650-3 0  9992
2 43013  98.7353 321.0315 0000718 116.1856 243.9394 14.19535635319859
GOES 17                 
1 43226U 18022A   24020.61109464 -.00000086  00000+0  00000+0 0  9992
2 43226   0.0288 174.8874 0001907 102.0526 317.8414  1.00271551 21619
FENGYUN 2H              
1 43491U 18050A   24020.47680194 -.00000127  00000+0  00000+0 0  9991
2 43491   0.7583  88.3331 0000416 349.0831 292.9718  1.00271462 20622
METOP-C                 
1 43689U 18087A   24020.76237064  .00000246  00000+0  13253-3 0  9995
2 43689  98.7027  82.0317 0003323 133.0478 227.0978 14.21498263270030
GEO-KOMPSAT-2A          
1 43823U 18100A   24020.73313436 -.00000340  00000+0  00000+0 0  9994
2 43823   0.0145 120.6716 0000402 269.7765 121.3067  1.00272501 18853
METEOR-M2 2             
1 44387U 19038A   24020.80876788  .00000127  00000+0  75088-4 0  9998
2 44387  98.8074 349.6106 0002068  55.3802 304.7571 14.23844173236276
ARKTIKA-M 1             
1 47719U 21016A   24019.20989576  .00000182  00000+0  00000+0 0  9999
2 47719  63.1432 168.7183 6900697 269.0727  18.1192  2.00601347 21135
FENGYUN 3E              
1 49008U 21062A   24020.85645226  .00000081  00000+0  59018-4 0  9993
2 49008  98.7295  24.1487 0002616  95.3359 264.8115 14.19723636131945
GOES 18                 
1 51850U 22021A   24019.44408507  .00000102  00000+0  00000+0 0  9995
2 51850   0.0218 176.3277 0000637  73.8309 251.0249  1.00272603  6966
NOAA 21 (JPSS-2)        
1 54234U 22150A   24020.58360343  .00000242  00000+0  13563-3 0  9996
2 54234  98.7389 320.3285 0001114 105.5764 254.5535 14.19562940 61896
METEOSAT-12 (MTG-I1)    
1 54743U 22170C   24020.10220287 -.00000027  00000+0  00000+0 0  9993
2 54743   0.3911 355.2769 0001795 270.9088 246.0229  1.00272825  4165
TIANMU-1 03             
1 55973U 23039A   24020.73753716  .00010890  00000+0  46800-3 0  9991
2 55973  97.4481 172.1257 0011786 270.4169  89.5717 15.22782732 46243
TIANMU-1 04             
1 55974U 23039B   24020.78506459  .00010618  00000+0  45656-3 0  9993
2 55974  97.4400 171.8932 0008784 270.3473  89.6757 15.22797560 46242
TIANMU-1 05             
1 55975U 23039C   24020.70480039  .00011385  00000+0  48996-3 0  9993
2 55975  97.4449 172.0408 0004869 262.2124  97.8560 15.22773326 46225
TIANMU-1 06             
1 55976U 23039D   24020.75472812  .00011215  00000+0  48273-3 0  9999
2 55976  97.4464 172.1790 0004296 264.4282  95.6465 15.22772290 46231
METEOR-M2 3             
1 57166U 23091A   24020.77484990  .00000036  00000+0  35130-4 0  9990
2 57166  98.7365  76.6242 0003843 185.3037 174.8102 14.23866696 29507
TIANMU-1 07             
1 57399U 23101A   24020.78993375  .00007253  00000+0  39053-3 0  9998
2 57399  97.3864  82.1718 0004609   3.8257 356.3010 15.15107419 27958
TIANMU-1 08             
1 57400U 23101B   24020.82437155  .00006636  00000+0  35761-3 0  9991
2 57400  97.3856  82.1015 0007107   0.6393 359.4847 15.15096931 27941
TIANMU-1 09             
1 57401U 23101C   24020.73971316  .00006251  00000+0  33704-3 0  9992
2 57401  97.3809  81.9524 0007237 354.7866   5.3290 15.15102621 27936
TIANMU-1 10             
1 57402U 23101D   24020.70555688  .00007184  00000+0  38581-3 0  9994
2 57402  97.3891  82.0396 0009836 353.5113   6.5990 15.15172505 27923
FENGYUN 3F              
1 57490U 23111A   24020.81600013  .00000169  00000+0  10067-3 0  9992
2 57490  98.7895  91.2059 0001636 122.7499 237.3835 14.19757301 24217
TIANMU-1 11             
1 58645U 23205A   24020.78951752  .00005714  00000+0  31904-3 0  9998
2 58645  97.4199  49.7132 0011493 177.3138 182.8157 15.13862424  4050
TIANMU-1 12             
1 58646U 23205B   24020.79264293  .00005980  00000+0  33593-3 0  9998
2 58646  97.4185  49.7039 0010393 173.0651 187.0726 15.13631310  4049
TIANMU-1 13             
1 58647U 23205C   24020.79944164  .00006104  00000+0  34739-3 0  9993
2 58647  97.4216  49.7058 0010836 166.2158 193.9371 15.13151298  4048
TIANMU-1 14             
1 58648U 23205D   24020.72714395  .00005850  00000+0  32878-3 0  9997
2 58648  97.4141  49.6227 0011028 170.8911 189.2523 15.13621376  4030
TIANMU-1 19             
1 58660U 23208A   24020.85421108  .00008004  00000+0  45414-3 0  9999
2 58660  97.3998 137.3093 0011754 156.5343 203.6427 15.13154555  3724
TIANMU-1 20             
1 58661U 23208B   24020.84848343  .00007754  00000+0  42884-3 0  9992
2 58661  97.3920 137.2914 0011348 168.3696 191.7800 15.14086161  3722
